[{"OBJECT_NAME":"STARLINK-30911","OBJECT_ID":"2023-178A","EPOCH":"2026-03-09T22:48:18.759168","MEAN_MOTION":15.30193711,"ECCENTRICITY":8.472e-5,"INCLINATION":53.1627,"RA_OF_ASC_NODE":359.6943,"ARG_OF_PERICENTER":84.102,"MEAN_ANOMALY":276.0077,"EPHEMERIS_TYPE":0,"CLASSIFICATION_TYPE":"U","NORAD_CAT_ID":58374,"ELEMENT_SET_NO":999,"REV_AT_EPOCH":12992,"BSTAR":-1.1912145e-5,"MEAN_MOTION_DOT":-7.12e-6,"MEAN_MOTION_DDOT":0},{"OBJECT_NAME":"OBJECT A","OBJECT_ID":"2023-189A","EPOCH":"2026-03-09T22:59:06.381600","MEAN_MOTION":15.32403275,"ECCENTRICITY":0.00094831,"INCLINATION":97.4458,"RA_OF_ASC_NODE":86.5997,"ARG_OF_PERICENTER":249.5377,"MEAN_ANOMALY":110.4847,"EPHEMERIS_TYPE":0,"CLASSIFICATION_TYPE":"U","NORAD_CAT_ID":58502,"ELEMENT_SET_NO":999,"REV_AT_EPOCH":12601,"BSTAR":0.00019874471,"MEAN_MOTION_DOT":6.146e-5,"MEAN_MOTION_DDOT":0}]
